STARLINK-36610          
1 67637U 26020W   26188.01473068  .00013809  00000+0  51068-3 0  9996
2 67637  43.0019 185.8194 0001590 275.0207  85.0463 15.27561333 24369
STARLINK-36599          
1 67638U 26020X   26187.98532602  .00012377  00000+0  45886-3 0  9992
2 67638  43.0047 186.4612 0001460 276.6899  83.3787 15.27556940 24350
STARLINK-36595          
1 67639U 26020Y   26187.69550285  .00016266  00000+0  59977-3 0  9995
2 67639  43.0015 187.7160 0002086 272.0026  88.0586 15.27553683 24311
STARLINK-36570          
1 67640U 26020Z   26188.00445259  .00018937  00000+0  69624-3 0  9994
2 67640  43.0009 185.7408 0001760 270.6438  89.4212 15.27564916 24365
STARLINK-36514          
1 67641U 26020AA  26187.98275609  .00012925  00000+0  47873-3 0  9994
2 67641  43.0032 186.4362 0001043 267.5970  92.4762 15.27555451 24356
STARLINK-36556          
1 67642U 26020AB  26188.04428947  .00017319  00000+0  63776-3 0  9990
2 67642  43.0039 186.0446 0001193 249.5414 110.5310 15.27562051 24368
STARLINK-36533          
1 67643U 26020AC  26187.35443241  .00020439  00000+0  75087-3 0  9993
2 67643  42.9995 189.4692 0001319 259.9629 100.1074 15.27549963 24269
STARLINK-36623          
1 67644U 26020AD  26188.06341365  .00012072  00000+0  44780-3 0  9997
2 67644  43.0007 185.3234 0001450 272.1202  87.9483 15.27558201 24376
STARLINK-36619          
1 67645U 26020AE  26188.06212792  .00015694  00000+0  57888-3 0  9995
2 67645  43.0016 185.3138 0001504 280.1429  79.9253 15.27563697 24371
ALSAT-3B                
1 67646U 26021A   26188.19067707  .00004135  00000+0  17489-3 0  9996
2 67646  97.4575 261.8367 0016768  96.0717 264.2431 15.23650420 23914
STARLINK-36719          
1 67648U 26022A   26187.68270608  .00007684  00000+0  24020-3 0  9999
2 67648  97.2841 220.2593 0000749 100.4410 259.6917 15.33430314 23806
STARLINK-36342          
1 67649U 26022B   26187.68149050  .00018936  00000+0  58787-3 0  9995
2 67649  97.2837 221.3270 0000645  63.6090 296.5218 15.33419637 23871
STARLINK-36703          
1 67650U 26022C   26187.65010403  .00023046  00000+0  71442-3 0  9994
2 67650  97.2839 220.3027 0001352 118.2612 241.8767 15.33425830 23804
STARLINK-36696          
1 67651U 26022D   26187.66641794  .00021480  00000+0  66624-3 0  9995
2 67651  97.2837 220.2810 0001088 123.5700 236.5646 15.33423292 23802
STARLINK-36699          
1 67652U 26022E   26188.02529927  .00016510  00000+0  51256-3 0  9993
2 67652  97.2838 220.7112 0002076  94.4231 265.7248 15.33447230 23863
STARLINK-36694          
1 67653U 26022F   26188.06609295  .00020633  00000+0  63916-3 0  9992
2 67653  97.2848 220.6574 0000252  48.8021 311.3243 15.33471800 23863
STARLINK-36620          
1 67654U 26022G   26187.65826115  .00025168  00000+0  77973-3 0  9995
2 67654  97.2839 220.2909 0001058  85.9503 274.1861 15.33428501 23800
STARLINK-36720          
1 67655U 26022H   26188.03347027  .00035745  00000+0  11034-2 0  9996
2 67655  97.2835 220.7001 0000279  81.0699 279.0575 15.33471413 23864
STARLINK-36688          
1 67656U 26022J   26188.08241885  .00015456  00000+0  48011-3 0  9990
2 67656  97.2840 220.7875 0000768  95.6497 264.4834 15.33443720 23877
STARLINK-36706          
1 67657U 26022K   26187.66913632  .00021991  00000+0  68199-3 0  9990
2 67657  97.2837 220.2773 0000697  92.1476 267.9847 15.33423216 23809
STARLINK-36701          
1 67658U 26022L   26187.66097647  .00037287  00000+0  11518-2 0  9997
2 67658  97.2866 220.2892 0000941  94.2584 265.8766 15.33441614 23808
STARLINK-36642          
1 67659U 26022M   26187.65282227  .00030301  00000+0  93751-3 0  9997
2 67659  97.2843 220.2987 0000635  67.8593 292.2717 15.33432705 23806
STARLINK-36673          
1 67660U 26022N   26188.03619457  .00026201  00000+0  81084-3 0  9991
2 67660  97.2837 220.6965 0000886  95.7315 264.4029 15.33455615 23869
STARLINK-36674          
1 67661U 26022P   26188.02803757  .00017487  00000+0  54261-3 0  9992
2 67661  97.2842 220.7081 0000913 100.5840 259.5505 15.33451913 23866
STARLINK-36700          
1 67662U 26022Q   26187.62019444  .00020946  00000+0  64981-3 0  9994
2 67662  97.2845 220.3454 0000752  70.0580 290.0743 15.33422551 23807
STARLINK-36675          
1 67663U 26022R   26188.08513709  .00021176  00000+0  65635-3 0  9992
2 67663  97.2838 220.7839 0000686  81.7917 278.3404 15.33448991 23876
STARLINK-36404          
1 67664U 26022S   26188.07154501  .00018978  00000+0  58858-3 0  9998
2 67664  97.2848 220.6502 0000474  37.9617 322.1659 15.33452304 23861
STARLINK-36399          
1 67665U 26022T   26188.06882481  .00014143  00000+0  43962-3 0  9993
2 67665  97.2842 220.6546 0000959 107.4179 252.7169 15.33443106 23862
STARLINK-36365          
1 67666U 26022U   26187.67184198  .00015695  00000+0  48774-3 0  9999
2 67666  97.2841 220.2753 0000855  86.6420 273.4920 15.33427631 23804
STARLINK-36622          
1 67667U 26022V   26187.66369843  .00022094  00000+0  68515-3 0  9997
2 67667  97.2842 220.2855 0000682  58.7247 301.4062 15.33424274 23803
