OBJECT_NAME,OBJECT_ID,EPOCH,MEAN_MOTION,ECCENTRICITY,INCLINATION,RA_OF_ASC_NODE,ARG_OF_PERICENTER,MEAN_ANOMALY,EPHEMERIS_TYPE,CLASSIFICATION_TYPE,NORAD_CAT_ID,ELEMENT_SET_NO,REV_AT_EPOCH,BSTAR,MEAN_MOTION_DOT,MEAN_MOTION_DDOT
STARLINK-36610,2026-020W,2026-07-07T00:21:12.730752,15.27561333,.000159,43.0019,185.8194,275.0207,85.0463,0,U,67637,999,2436,.51068E-3,.13809E-3,0
STARLINK-36599,2026-020X,2026-07-06T23:38:52.168128,15.27556940,.000146,43.0047,186.4612,276.6899,83.3787,0,U,67638,999,2435,.45886E-3,.12377E-3,0
STARLINK-36595,2026-020Y,2026-07-06T16:41:31.446240,15.27553683,.0002086,43.0015,187.7160,272.0026,88.0586,0,U,67639,999,2431,.59977E-3,.16266E-3,0
STARLINK-36570,2026-020Z,2026-07-07T00:06:24.703776,15.27564916,.000176,43.0009,185.7408,270.6438,89.4212,0,U,67640,999,2436,.69624E-3,.18937E-3,0
STARLINK-36514,2026-020AA,2026-07-06T23:35:10.126176,15.27555451,.0001043,43.0032,186.4362,267.5970,92.4762,0,U,67641,999,2435,.47873E-3,.12925E-3,0
STARLINK-36556,2026-020AB,2026-07-07T01:03:46.610208,15.27562051,.0001193,43.0039,186.0446,249.5414,110.5310,0,U,67642,999,2436,.63776E-3,.17319E-3,0
STARLINK-36533,2026-020AC,2026-07-06T08:30:22.960224,15.27549963,.00013199,42.9995,189.4692,259.9629,100.1074,0,U,67643,999,2426,.75086756E-3,.20439E-3,0
STARLINK-36623,2026-020AD,2026-07-07T01:31:18.939360,15.27558201,.000145,43.0007,185.3234,272.1202,87.9483,0,U,67644,999,2437,.4478E-3,.12072E-3,0
STARLINK-36619,2026-020AE,2026-07-07T01:29:27.852288,15.27563697,.0001504,43.0016,185.3138,280.1429,79.9253,0,U,67645,999,2437,.57888E-3,.15694E-3,0
ALSAT-3B,2026-021A,2026-07-07T04:34:34.498848,15.23650420,.0016768,97.4575,261.8367,96.0717,264.2431,0,U,67646,999,2391,.17489E-3,.4135E-4,0
STARLINK-36719,2026-022A,2026-07-06T16:23:05.805312,15.33430314,.0000749,97.2841,220.2593,100.4410,259.6917,0,U,67648,999,2380,.2402E-3,.7684E-4,0
STARLINK-36342,2026-022B,2026-07-06T16:21:20.779200,15.33419637,.0000645,97.2837,221.3270,63.6090,296.5218,0,U,67649,999,2387,.58787E-3,.18936E-3,0
STARLINK-36703,2026-022C,2026-07-06T15:36:08.988192,15.33425830,.0001352,97.2839,220.3027,118.2612,241.8767,0,U,67650,999,2380,.71442E-3,.23046E-3,0
STARLINK-36696,2026-022D,2026-07-06T15:59:38.510016,15.33423292,.0001088,97.2837,220.2810,123.5700,236.5646,0,U,67651,999,2380,.66624E-3,.2148E-3,0
STARLINK-36699,2026-022E,2026-07-07T00:36:25.856928,15.33447230,.0002076,97.2838,220.7112,94.4231,265.7248,0,U,67652,999,2386,.51256E-3,.1651E-3,0
STARLINK-36694,2026-022F,2026-07-07T01:35:10.430880,15.33471800,.0000252,97.2848,220.6574,48.8021,311.3243,0,U,67653,999,2386,.63916E-3,.20633E-3,0
STARLINK-36620,2026-022G,2026-07-06T15:47:53.763360,15.33428501,.0001058,97.2839,220.2909,85.9503,274.1861,0,U,67654,999,2380,.77973E-3,.25168E-3,0
STARLINK-36720,2026-022H,2026-07-07T00:48:11.831328,15.33471413,.0000279,97.2835,220.7001,81.0699,279.0575,0,U,67655,999,2386,.11034E-2,.35745E-3,0
STARLINK-36688,2026-022J,2026-07-07T01:58:40.988640,15.33443720,.0000768,97.2840,220.7875,95.6497,264.4834,0,U,67656,999,2387,.48011E-3,.15456E-3,0
STARLINK-36706,2026-022K,2026-07-06T16:03:33.378048,15.33423216,.0000697,97.2837,220.2773,92.1476,267.9847,0,U,67657,999,2380,.68199E-3,.21991E-3,0
STARLINK-36701,2026-022L,2026-07-06T15:51:48.367008,15.33441614,.0000941,97.2866,220.2892,94.2584,265.8766,0,U,67658,999,2380,.11518E-2,.37287E-3,0
STARLINK-36642,2026-022M,2026-07-06T15:40:03.844128,15.33432705,.0000635,97.2843,220.2987,67.8593,292.2717,0,U,67659,999,2380,.93751E-3,.30301E-3,0
STARLINK-36673,2026-022N,2026-07-07T00:52:07.210848,15.33455615,.0000886,97.2837,220.6965,95.7315,264.4029,0,U,67660,999,2386,.81084E-3,.26201E-3,0
STARLINK-36674,2026-022P,2026-07-07T00:40:22.446048,15.33451913,.0000913,97.2842,220.7081,100.5840,259.5505,0,U,67661,999,2386,.54261E-3,.17487E-3,0
STARLINK-36700,2026-022Q,2026-07-06T14:53:04.799616,15.33422551,.0000752,97.2845,220.3454,70.0580,290.0743,0,U,67662,999,2380,.64981E-3,.20946E-3,0
STARLINK-36675,2026-022R,2026-07-07T02:02:35.844576,15.33448991,.0000686,97.2838,220.7839,81.7917,278.3404,0,U,67663,999,2387,.65635E-3,.21176E-3,0
STARLINK-36404,2026-022S,2026-07-07T01:43:01.488864,15.33452304,.0000474,97.2848,220.6502,37.9617,322.1659,0,U,67664,999,2386,.58858E-3,.18978E-3,0
STARLINK-36399,2026-022T,2026-07-07T01:39:06.463584,15.33443106,.0000959,97.2842,220.6546,107.4179,252.7169,0,U,67665,999,2386,.43962E-3,.14143E-3,0
STARLINK-36365,2026-022U,2026-07-06T16:07:27.147072,15.33427631,.0000855,97.2841,220.2753,86.6420,273.4920,0,U,67666,999,2380,.48774E-3,.15695E-3,0
STARLINK-36622,2026-022V,2026-07-06T15:55:43.544352,15.33424274,.0000682,97.2842,220.2855,58.7247,301.4062,0,U,67667,999,2380,.68515E-3,.22094E-3,0
